{
  "type": "FeatureCollection",
  "features": [
    {
      "type": "Feature",
      "properties": {
        "norad_id": 66404,
        "name": "STARLINK-35691",
        "group": "last-30-days",
        "lat": 35.020749346332266,
        "lon": 102.13288385716127,
        "alt_km": 413.4491555842278,
        "timestamp": "2025-12-02T06:27:51.800493+00:00",
        "meta_object_name": "STARLINK-35691",
        "meta_object_id": "2025-257AA",
        "meta_epoch": "2025-12-01T20:00:01.999008",
        "meta_mean_motion": 15.49301373,
        "meta_eccentricity": 0.0001562,
        "meta_inclination": 53.1586,
        "meta_ra_of_asc_node": 315.9128,
        "meta_arg_of_pericenter": 98.3018,
        "meta_mean_anomaly": 122.6671,
        "meta_ephemeris_type": 0,
        "meta_classification_type": "U",
        "meta_norad_cat_id": 66404,
        "meta_element_set_no": 999,
        "meta_rev_at_epoch": 474,
        "meta_bstar": -4.3721e-05,
        "meta_mean_motion_dot": -2.879e-05,
        "meta_mean_motion_ddot": 0,
        "tle_line1": "1 66404U 25257AA  25335.83335647 -.00002879  00000+0 -43721-4 0  9996",
        "tle_line2": "2 66404  53.1586 315.9128 0001562  98.3018 122.6671 15.49301373  4748"
      },
      "geometry": {
        "type": "Point",
        "coordinates": [
          102.13288385716127,
          35.020749346332266
        ]
      }
    },
    {
      "type": "Feature",
      "properties": {
        "norad_id": 66405,
        "name": "STARLINK-35683",
        "group": "last-30-days",
        "lat": 33.698807585626064,
        "lon": 103.82250238220577,
        "alt_km": 413.53335150878684,
        "timestamp": "2025-12-02T06:27:51.800503+00:00",
        "meta_object_name": "STARLINK-35683",
        "meta_object_id": "2025-257AB",
        "meta_epoch": "2025-12-01T20:00:01.999008",
        "meta_mean_motion": 15.4923347,
        "meta_eccentricity": 0.0001453,
        "meta_inclination": 53.1586,
        "meta_ra_of_asc_node": 315.9081,
        "meta_arg_of_pericenter": 100.0998,
        "meta_mean_anomaly": 122.7963,
        "meta_ephemeris_type": 0,
        "meta_classification_type": "U",
        "meta_norad_cat_id": 66405,
        "meta_element_set_no": 999,
        "meta_rev_at_epoch": 458,
        "meta_bstar": 0.0026464,
        "meta_mean_motion_dot": 0.00149179,
        "meta_mean_motion_ddot": 0,
        "tle_line1": "1 66405U 25257AB  25335.83335647  .00149179  00000+0  26464-2 0  9993",
        "tle_line2": "2 66405  53.1586 315.9081 0001453 100.0998 122.7963 15.49233470  4583"
      },
      "geometry": {
        "type": "Point",
        "coordinates": [
          103.82250238220577,
          33.698807585626064
        ]
      }
    },
    {
      "type": "Feature",
      "properties": {
        "norad_id": 66406,
        "name": "STARLINK-34840",
        "group": "last-30-days",
        "lat": 29.630984492612583,
        "lon": 108.56907711010687,
        "alt_km": 414.43221411479317,
        "timestamp": "2025-12-02T06:27:51.800513+00:00",
        "meta_object_name": "STARLINK-34840",
        "meta_object_id": "2025-257AC",
        "meta_epoch": "2025-12-01T14:00:01.999872",
        "meta_mean_motion": 15.49270707,
        "meta_eccentricity": 0.00015929,
        "meta_inclination": 53.1586,
        "meta_ra_of_asc_node": 317.0931,
        "meta_arg_of_pericenter": 91.5897,
        "meta_mean_anomaly": 181.8881,
        "meta_ephemeris_type": 0,
        "meta_classification_type": "U",
        "meta_norad_cat_id": 66406,
        "meta_element_set_no": 999,
        "meta_rev_at_epoch": 464,
        "meta_bstar": 0.00053878507,
        "meta_mean_motion_dot": 0.0002959,
        "meta_mean_motion_ddot": 0,
        "tle_line1": "1 66406U 25257AC  25335.58335648  .00029590  00000+0  53879-3 0  9992",
        "tle_line2": "2 66406  53.1586 317.0931 0001592  91.5897 181.8881 15.49270707  4643"
      },
      "geometry": {
        "type": "Point",
        "coordinates": [
          108.56907711010687,
          29.630984492612583
        ]
      }
    },
    {
      "type": "Feature",
      "properties": {
        "norad_id": 66407,
        "name": "STARLINK-35686",
        "group": "last-30-days",
        "lat": 32.36169628787762,
        "lon": 105.45245269456477,
        "alt_km": 413.8885475019015,
        "timestamp": "2025-12-02T06:27:51.800523+00:00",
        "meta_object_name": "STARLINK-35686",
        "meta_object_id": "2025-257AD",
        "meta_epoch": "2025-12-01T20:00:01.999008",
        "meta_mean_motion": 15.49301159,
        "meta_eccentricity": 0.0001634,
        "meta_inclination": 53.1585,
        "meta_ra_of_asc_node": 315.9043,
        "meta_arg_of_pericenter": 98.1387,
        "meta_mean_anomaly": 126.6644,
        "meta_ephemeris_type": 0,
        "meta_classification_type": "U",
        "meta_norad_cat_id": 66407,
        "meta_element_set_no": 999,
        "meta_rev_at_epoch": 474,
        "meta_bstar": -8.4485e-05,
        "meta_mean_motion_dot": -5.143e-05,
        "meta_mean_motion_ddot": 0,
        "tle_line1": "1 66407U 25257AD  25335.83335647 -.00005143  00000+0 -84485-4 0  9998",
        "tle_line2": "2 66407  53.1585 315.9043 0001634  98.1387 126.6644 15.49301159  4749"
      },
      "geometry": {
        "type": "Point",
        "coordinates": [
          105.45245269456477,
          32.36169628787762
        ]
      }
    },
    {
      "type": "Feature",
      "properties": {
        "norad_id": 66408,
        "name": "STARLINK-35679",
        "group": "last-30-days",
        "lat": 31.001887854950862,
        "lon": 107.0384228813137,
        "alt_km": 414.2089322268448,
        "timestamp": "2025-12-02T06:27:51.800533+00:00",
        "meta_object_name": "STARLINK-35679",
        "meta_object_id": "2025-257AE",
        "meta_epoch": "2025-12-01T20:00:01.999008",
        "meta_mean_motion": 15.4929498,
        "meta_eccentricity": 0.0001403,
        "meta_inclination": 53.1585,
        "meta_ra_of_asc_node": 315.9018,
        "meta_arg_of_pericenter": 100.7426,
        "meta_mean_anomaly": 125.9783,
        "meta_ephemeris_type": 0,
        "meta_classification_type": "U",
        "meta_norad_cat_id": 66408,
        "meta_element_set_no": 999,
        "meta_rev_at_epoch": 474,
        "meta_bstar": 0.00014592,
        "meta_mean_motion_dot": 7.671e-05,
        "meta_mean_motion_ddot": 0,
        "tle_line1": "1 66408U 25257AE  25335.83335647  .00007671  00000+0  14592-3 0  9996",
        "tle_line2": "2 66408  53.1585 315.9018 0001403 100.7426 125.9783 15.49294980  4749"
      },
      "geometry": {
        "type": "Point",
        "coordinates": [
          107.0384228813137,
          31.001887854950862
        ]
      }
    },
    {
      "type": "Feature",
      "properties": {
        "norad_id": 66409,
        "name": "CHUTIAN-2 A",
        "group": "last-30-days",
        "lat": 7.271211543846152,
        "lon": -137.72007381349064,
        "alt_km": 720.4444866631175,
        "timestamp": "2025-12-02T06:27:51.800543+00:00",
        "meta_object_name": "CHUTIAN-2 A",
        "meta_object_id": "2025-256A",
        "meta_epoch": "2025-12-01T21:23:21.020928",
        "meta_mean_motion": 14.49913499,
        "meta_eccentricity": 0.0013181,
        "meta_inclination": 98.2777,
        "meta_ra_of_asc_node": 40.8442,
        "meta_arg_of_pericenter": 210.9511,
        "meta_mean_anomaly": 149.0908,
        "meta_ephemeris_type": 0,
        "meta_classification_type": "U",
        "meta_norad_cat_id": 66409,
        "meta_element_set_no": 999,
        "meta_rev_at_epoch": 330,
        "meta_bstar": 2.6735e-05,
        "meta_mean_motion_dot": 5.9e-07,
        "meta_mean_motion_ddot": 0,
        "tle_line1": "1 66409U 25256A   25335.89121552  .00000059  00000+0  26735-4 0  9996",
        "tle_line2": "2 66409  98.2777  40.8442 0013181 210.9511 149.0908 14.49913499  3302"
      },
      "geometry": {
        "type": "Point",
        "coordinates": [
          -137.72007381349064,
          7.271211543846152
        ]
      }
    },
    {
      "type": "Feature",
      "properties": {
        "norad_id": 66410,
        "name": "CHUTIAN-2 B",
        "group": "last-30-days",
        "lat": -48.27881082276883,
        "lon": -148.15336794699576,
        "alt_km": 720.1520339357912,
        "timestamp": "2025-12-02T06:27:51.800553+00:00",
        "meta_object_name": "CHUTIAN-2 B",
        "meta_object_id": "2025-256B",
        "meta_epoch": "2025-12-01T21:08:15.041760",
        "meta_mean_motion": 14.51000656,
        "meta_eccentricity": 0.001321,
        "meta_inclination": 98.2804,
        "meta_ra_of_asc_node": 40.8644,
        "meta_arg_of_pericenter": 214.9915,
        "meta_mean_anomaly": 145.0413,
        "meta_ephemeris_type": 0,
        "meta_classification_type": "U",
        "meta_norad_cat_id": 66410,
        "meta_element_set_no": 999,
        "meta_rev_at_epoch": 330,
        "meta_bstar": 0.00019346,
        "meta_mean_motion_dot": 7.22e-06,
        "meta_mean_motion_ddot": 0,
        "tle_line1": "1 66410U 25256B   25335.88072965  .00000722  00000+0  19346-3 0  9996",
        "tle_line2": "2 66410  98.2804  40.8644 0013210 214.9915 145.0413 14.51000656  3306"
      },
      "geometry": {
        "type": "Point",
        "coordinates": [
          -148.15336794699576,
          -48.27881082276883
        ]
      }
    }
  ]
}